{
  "type": "FeatureCollection",
  "name": "ampio-tappe",
  "properties": {
    "description": "Approx 0.12 deg (~13 km) bubbles around each trip city for Ampio PMTiles extract",
    "radiusDegrees": 0.12,
    "cities": [
      "osaka",
      "nara",
      "miyajima",
      "hiroshima",
      "kyoto",
      "kanazawa",
      "shirakawago",
      "takayama",
      "matsumoto",
      "nagano",
      "tokyo",
      "kamakura",
      "hakone"
    ]
  },
  "features": [
    {
      "type": "Feature",
      "properties": {
        "name": "ampio-tappe-bubbles",
        "radiusDegrees": 0.12
      },
      "geometry": {
        "type": "MultiPolygon",
        "coordinates": [
          [
            [
              [
                135.6223,
                34.6937
              ],
              [
                135.619994,
                34.717111
              ],
              [
                135.613166,
                34.739622
              ],
              [
                135.602076,
                34.760368
              ],
              [
                135.587153,
                34.778553
              ],
              [
                135.568968,
                34.793476
              ],
              [
                135.548222,
                34.804566
              ],
              [
                135.525711,
                34.811394
              ],
              [
                135.5023,
                34.8137
              ],
              [
                135.478889,
                34.811394
              ],
              [
                135.456378,
                34.804566
              ],
              [
                135.435632,
                34.793476
              ],
              [
                135.417447,
                34.778553
              ],
              [
                135.402524,
                34.760368
              ],
              [
                135.391434,
                34.739622
              ],
              [
                135.384606,
                34.717111
              ],
              [
                135.3823,
                34.6937
              ],
              [
                135.384606,
                34.670289
              ],
              [
                135.391434,
                34.647778
              ],
              [
                135.402524,
                34.627032
              ],
              [
                135.417447,
                34.608847
              ],
              [
                135.435632,
                34.593924
              ],
              [
                135.456378,
                34.582834
              ],
              [
                135.478889,
                34.576006
              ],
              [
                135.5023,
                34.5737
              ],
              [
                135.525711,
                34.576006
              ],
              [
                135.548222,
                34.582834
              ],
              [
                135.568968,
                34.593924
              ],
              [
                135.587153,
                34.608847
              ],
              [
                135.602076,
                34.627032
              ],
              [
                135.613166,
                34.647778
              ],
              [
                135.619994,
                34.670289
              ],
              [
                135.6223,
                34.6937
              ]
            ]
          ],
          [
            [
              [
                135.9248,
                34.6851
              ],
              [
                135.922494,
                34.708511
              ],
              [
                135.915666,
                34.731022
              ],
              [
                135.904576,
                34.751768
              ],
              [
                135.889653,
                34.769953
              ],
              [
                135.871468,
                34.784876
              ],
              [
                135.850722,
                34.795966
              ],
              [
                135.828211,
                34.802794
              ],
              [
                135.8048,
                34.8051
              ],
              [
                135.781389,
                34.802794
              ],
              [
                135.758878,
                34.795966
              ],
              [
                135.738132,
                34.784876
              ],
              [
                135.719947,
                34.769953
              ],
              [
                135.705024,
                34.751768
              ],
              [
                135.693934,
                34.731022
              ],
              [
                135.687106,
                34.708511
              ],
              [
                135.6848,
                34.6851
              ],
              [
                135.687106,
                34.661689
              ],
              [
                135.693934,
                34.639178
              ],
              [
                135.705024,
                34.618432
              ],
              [
                135.719947,
                34.600247
              ],
              [
                135.738132,
                34.585324
              ],
              [
                135.758878,
                34.574234
              ],
              [
                135.781389,
                34.567406
              ],
              [
                135.8048,
                34.5651
              ],
              [
                135.828211,
                34.567406
              ],
              [
                135.850722,
                34.574234
              ],
              [
                135.871468,
                34.585324
              ],
              [
                135.889653,
                34.600247
              ],
              [
                135.904576,
                34.618432
              ],
              [
                135.915666,
                34.639178
              ],
              [
                135.922494,
                34.661689
              ],
              [
                135.9248,
                34.6851
              ]
            ]
          ],
          [
            [
              [
                132.4399,
                34.2959
              ],
              [
                132.437594,
                34.319311
              ],
              [
                132.430766,
                34.341822
              ],
              [
                132.419676,
                34.362568
              ],
              [
                132.404753,
                34.380753
              ],
              [
                132.386568,
                34.395676
              ],
              [
                132.365822,
                34.406766
              ],
              [
                132.343311,
                34.413594
              ],
              [
                132.3199,
                34.4159
              ],
              [
                132.296489,
                34.413594
              ],
              [
                132.273978,
                34.406766
              ],
              [
                132.253232,
                34.395676
              ],
              [
                132.235047,
                34.380753
              ],
              [
                132.220124,
                34.362568
              ],
              [
                132.209034,
                34.341822
              ],
              [
                132.202206,
                34.319311
              ],
              [
                132.1999,
                34.2959
              ],
              [
                132.202206,
                34.272489
              ],
              [
                132.209034,
                34.249978
              ],
              [
                132.220124,
                34.229232
              ],
              [
                132.235047,
                34.211047
              ],
              [
                132.253232,
                34.196124
              ],
              [
                132.273978,
                34.185034
              ],
              [
                132.296489,
                34.178206
              ],
              [
                132.3199,
                34.1759
              ],
              [
                132.343311,
                34.178206
              ],
              [
                132.365822,
                34.185034
              ],
              [
                132.386568,
                34.196124
              ],
              [
                132.404753,
                34.211047
              ],
              [
                132.419676,
                34.229232
              ],
              [
                132.430766,
                34.249978
              ],
              [
                132.437594,
                34.272489
              ],
              [
                132.4399,
                34.2959
              ]
            ]
          ],
          [
            [
              [
                132.5753,
                34.3853
              ],
              [
                132.572994,
                34.408711
              ],
              [
                132.566166,
                34.431222
              ],
              [
                132.555076,
                34.451968
              ],
              [
                132.540153,
                34.470153
              ],
              [
                132.521968,
                34.485076
              ],
              [
                132.501222,
                34.496166
              ],
              [
                132.478711,
                34.502994
              ],
              [
                132.4553,
                34.5053
              ],
              [
                132.431889,
                34.502994
              ],
              [
                132.409378,
                34.496166
              ],
              [
                132.388632,
                34.485076
              ],
              [
                132.370447,
                34.470153
              ],
              [
                132.355524,
                34.451968
              ],
              [
                132.344434,
                34.431222
              ],
              [
                132.337606,
                34.408711
              ],
              [
                132.3353,
                34.3853
              ],
              [
                132.337606,
                34.361889
              ],
              [
                132.344434,
                34.339378
              ],
              [
                132.355524,
                34.318632
              ],
              [
                132.370447,
                34.300447
              ],
              [
                132.388632,
                34.285524
              ],
              [
                132.409378,
                34.274434
              ],
              [
                132.431889,
                34.267606
              ],
              [
                132.4553,
                34.2653
              ],
              [
                132.478711,
                34.267606
              ],
              [
                132.501222,
                34.274434
              ],
              [
                132.521968,
                34.285524
              ],
              [
                132.540153,
                34.300447
              ],
              [
                132.555076,
                34.318632
              ],
              [
                132.566166,
                34.339378
              ],
              [
                132.572994,
                34.361889
              ],
              [
                132.5753,
                34.3853
              ]
            ]
          ],
          [
            [
              [
                135.8881,
                35.0116
              ],
              [
                135.885794,
                35.035011
              ],
              [
                135.878966,
                35.057522
              ],
              [
                135.867876,
                35.078268
              ],
              [
                135.852953,
                35.096453
              ],
              [
                135.834768,
                35.111376
              ],
              [
                135.814022,
                35.122466
              ],
              [
                135.791511,
                35.129294
              ],
              [
                135.7681,
                35.1316
              ],
              [
                135.744689,
                35.129294
              ],
              [
                135.722178,
                35.122466
              ],
              [
                135.701432,
                35.111376
              ],
              [
                135.683247,
                35.096453
              ],
              [
                135.668324,
                35.078268
              ],
              [
                135.657234,
                35.057522
              ],
              [
                135.650406,
                35.035011
              ],
              [
                135.6481,
                35.0116
              ],
              [
                135.650406,
                34.988189
              ],
              [
                135.657234,
                34.965678
              ],
              [
                135.668324,
                34.944932
              ],
              [
                135.683247,
                34.926747
              ],
              [
                135.701432,
                34.911824
              ],
              [
                135.722178,
                34.900734
              ],
              [
                135.744689,
                34.893906
              ],
              [
                135.7681,
                34.8916
              ],
              [
                135.791511,
                34.893906
              ],
              [
                135.814022,
                34.900734
              ],
              [
                135.834768,
                34.911824
              ],
              [
                135.852953,
                34.926747
              ],
              [
                135.867876,
                34.944932
              ],
              [
                135.878966,
                34.965678
              ],
              [
                135.885794,
                34.988189
              ],
              [
                135.8881,
                35.0116
              ]
            ]
          ],
          [
            [
              [
                136.7762,
                36.5613
              ],
              [
                136.773894,
                36.584711
              ],
              [
                136.767066,
                36.607222
              ],
              [
                136.755976,
                36.627968
              ],
              [
                136.741053,
                36.646153
              ],
              [
                136.722868,
                36.661076
              ],
              [
                136.702122,
                36.672166
              ],
              [
                136.679611,
                36.678994
              ],
              [
                136.6562,
                36.6813
              ],
              [
                136.632789,
                36.678994
              ],
              [
                136.610278,
                36.672166
              ],
              [
                136.589532,
                36.661076
              ],
              [
                136.571347,
                36.646153
              ],
              [
                136.556424,
                36.627968
              ],
              [
                136.545334,
                36.607222
              ],
              [
                136.538506,
                36.584711
              ],
              [
                136.5362,
                36.5613
              ],
              [
                136.538506,
                36.537889
              ],
              [
                136.545334,
                36.515378
              ],
              [
                136.556424,
                36.494632
              ],
              [
                136.571347,
                36.476447
              ],
              [
                136.589532,
                36.461524
              ],
              [
                136.610278,
                36.450434
              ],
              [
                136.632789,
                36.443606
              ],
              [
                136.6562,
                36.4413
              ],
              [
                136.679611,
                36.443606
              ],
              [
                136.702122,
                36.450434
              ],
              [
                136.722868,
                36.461524
              ],
              [
                136.741053,
                36.476447
              ],
              [
                136.755976,
                36.494632
              ],
              [
                136.767066,
                36.515378
              ],
              [
                136.773894,
                36.537889
              ],
              [
                136.7762,
                36.5613
              ]
            ]
          ],
          [
            [
              [
                137.026,
                36.257
              ],
              [
                137.023694,
                36.280411
              ],
              [
                137.016866,
                36.302922
              ],
              [
                137.005776,
                36.323668
              ],
              [
                136.990853,
                36.341853
              ],
              [
                136.972668,
                36.356776
              ],
              [
                136.951922,
                36.367866
              ],
              [
                136.929411,
                36.374694
              ],
              [
                136.906,
                36.377
              ],
              [
                136.882589,
                36.374694
              ],
              [
                136.860078,
                36.367866
              ],
              [
                136.839332,
                36.356776
              ],
              [
                136.821147,
                36.341853
              ],
              [
                136.806224,
                36.323668
              ],
              [
                136.795134,
                36.302922
              ],
              [
                136.788306,
                36.280411
              ],
              [
                136.786,
                36.257
              ],
              [
                136.788306,
                36.233589
              ],
              [
                136.795134,
                36.211078
              ],
              [
                136.806224,
                36.190332
              ],
              [
                136.821147,
                36.172147
              ],
              [
                136.839332,
                36.157224
              ],
              [
                136.860078,
                36.146134
              ],
              [
                136.882589,
                36.139306
              ],
              [
                136.906,
                36.137
              ],
              [
                136.929411,
                36.139306
              ],
              [
                136.951922,
                36.146134
              ],
              [
                136.972668,
                36.157224
              ],
              [
                136.990853,
                36.172147
              ],
              [
                137.005776,
                36.190332
              ],
              [
                137.016866,
                36.211078
              ],
              [
                137.023694,
                36.233589
              ],
              [
                137.026,
                36.257
              ]
            ]
          ],
          [
            [
              [
                137.372,
                36.146
              ],
              [
                137.369694,
                36.169411
              ],
              [
                137.362866,
                36.191922
              ],
              [
                137.351776,
                36.212668
              ],
              [
                137.336853,
                36.230853
              ],
              [
                137.318668,
                36.245776
              ],
              [
                137.297922,
                36.256866
              ],
              [
                137.275411,
                36.263694
              ],
              [
                137.252,
                36.266
              ],
              [
                137.228589,
                36.263694
              ],
              [
                137.206078,
                36.256866
              ],
              [
                137.185332,
                36.245776
              ],
              [
                137.167147,
                36.230853
              ],
              [
                137.152224,
                36.212668
              ],
              [
                137.141134,
                36.191922
              ],
              [
                137.134306,
                36.169411
              ],
              [
                137.132,
                36.146
              ],
              [
                137.134306,
                36.122589
              ],
              [
                137.141134,
                36.100078
              ],
              [
                137.152224,
                36.079332
              ],
              [
                137.167147,
                36.061147
              ],
              [
                137.185332,
                36.046224
              ],
              [
                137.206078,
                36.035134
              ],
              [
                137.228589,
                36.028306
              ],
              [
                137.252,
                36.026
              ],
              [
                137.275411,
                36.028306
              ],
              [
                137.297922,
                36.035134
              ],
              [
                137.318668,
                36.046224
              ],
              [
                137.336853,
                36.061147
              ],
              [
                137.351776,
                36.079332
              ],
              [
                137.362866,
                36.100078
              ],
              [
                137.369694,
                36.122589
              ],
              [
                137.372,
                36.146
              ]
            ]
          ],
          [
            [
              [
                138.092,
                36.238
              ],
              [
                138.089694,
                36.261411
              ],
              [
                138.082866,
                36.283922
              ],
              [
                138.071776,
                36.304668
              ],
              [
                138.056853,
                36.322853
              ],
              [
                138.038668,
                36.337776
              ],
              [
                138.017922,
                36.348866
              ],
              [
                137.995411,
                36.355694
              ],
              [
                137.972,
                36.358
              ],
              [
                137.948589,
                36.355694
              ],
              [
                137.926078,
                36.348866
              ],
              [
                137.905332,
                36.337776
              ],
              [
                137.887147,
                36.322853
              ],
              [
                137.872224,
                36.304668
              ],
              [
                137.861134,
                36.283922
              ],
              [
                137.854306,
                36.261411
              ],
              [
                137.852,
                36.238
              ],
              [
                137.854306,
                36.214589
              ],
              [
                137.861134,
                36.192078
              ],
              [
                137.872224,
                36.171332
              ],
              [
                137.887147,
                36.153147
              ],
              [
                137.905332,
                36.138224
              ],
              [
                137.926078,
                36.127134
              ],
              [
                137.948589,
                36.120306
              ],
              [
                137.972,
                36.118
              ],
              [
                137.995411,
                36.120306
              ],
              [
                138.017922,
                36.127134
              ],
              [
                138.038668,
                36.138224
              ],
              [
                138.056853,
                36.153147
              ],
              [
                138.071776,
                36.171332
              ],
              [
                138.082866,
                36.192078
              ],
              [
                138.089694,
                36.214589
              ],
              [
                138.092,
                36.238
              ]
            ]
          ],
          [
            [
              [
                138.3148,
                36.6486
              ],
              [
                138.312494,
                36.672011
              ],
              [
                138.305666,
                36.694522
              ],
              [
                138.294576,
                36.715268
              ],
              [
                138.279653,
                36.733453
              ],
              [
                138.261468,
                36.748376
              ],
              [
                138.240722,
                36.759466
              ],
              [
                138.218211,
                36.766294
              ],
              [
                138.1948,
                36.7686
              ],
              [
                138.171389,
                36.766294
              ],
              [
                138.148878,
                36.759466
              ],
              [
                138.128132,
                36.748376
              ],
              [
                138.109947,
                36.733453
              ],
              [
                138.095024,
                36.715268
              ],
              [
                138.083934,
                36.694522
              ],
              [
                138.077106,
                36.672011
              ],
              [
                138.0748,
                36.6486
              ],
              [
                138.077106,
                36.625189
              ],
              [
                138.083934,
                36.602678
              ],
              [
                138.095024,
                36.581932
              ],
              [
                138.109947,
                36.563747
              ],
              [
                138.128132,
                36.548824
              ],
              [
                138.148878,
                36.537734
              ],
              [
                138.171389,
                36.530906
              ],
              [
                138.1948,
                36.5286
              ],
              [
                138.218211,
                36.530906
              ],
              [
                138.240722,
                36.537734
              ],
              [
                138.261468,
                36.548824
              ],
              [
                138.279653,
                36.563747
              ],
              [
                138.294576,
                36.581932
              ],
              [
                138.305666,
                36.602678
              ],
              [
                138.312494,
                36.625189
              ],
              [
                138.3148,
                36.6486
              ]
            ]
          ],
          [
            [
              [
                139.7703,
                35.6762
              ],
              [
                139.767994,
                35.699611
              ],
              [
                139.761166,
                35.722122
              ],
              [
                139.750076,
                35.742868
              ],
              [
                139.735153,
                35.761053
              ],
              [
                139.716968,
                35.775976
              ],
              [
                139.696222,
                35.787066
              ],
              [
                139.673711,
                35.793894
              ],
              [
                139.6503,
                35.7962
              ],
              [
                139.626889,
                35.793894
              ],
              [
                139.604378,
                35.787066
              ],
              [
                139.583632,
                35.775976
              ],
              [
                139.565447,
                35.761053
              ],
              [
                139.550524,
                35.742868
              ],
              [
                139.539434,
                35.722122
              ],
              [
                139.532606,
                35.699611
              ],
              [
                139.5303,
                35.6762
              ],
              [
                139.532606,
                35.652789
              ],
              [
                139.539434,
                35.630278
              ],
              [
                139.550524,
                35.609532
              ],
              [
                139.565447,
                35.591347
              ],
              [
                139.583632,
                35.576424
              ],
              [
                139.604378,
                35.565334
              ],
              [
                139.626889,
                35.558506
              ],
              [
                139.6503,
                35.5562
              ],
              [
                139.673711,
                35.558506
              ],
              [
                139.696222,
                35.565334
              ],
              [
                139.716968,
                35.576424
              ],
              [
                139.735153,
                35.591347
              ],
              [
                139.750076,
                35.609532
              ],
              [
                139.761166,
                35.630278
              ],
              [
                139.767994,
                35.652789
              ],
              [
                139.7703,
                35.6762
              ]
            ]
          ],
          [
            [
              [
                139.6725,
                35.3197
              ],
              [
                139.670194,
                35.343111
              ],
              [
                139.663366,
                35.365622
              ],
              [
                139.652276,
                35.386368
              ],
              [
                139.637353,
                35.404553
              ],
              [
                139.619168,
                35.419476
              ],
              [
                139.598422,
                35.430566
              ],
              [
                139.575911,
                35.437394
              ],
              [
                139.5525,
                35.4397
              ],
              [
                139.529089,
                35.437394
              ],
              [
                139.506578,
                35.430566
              ],
              [
                139.485832,
                35.419476
              ],
              [
                139.467647,
                35.404553
              ],
              [
                139.452724,
                35.386368
              ],
              [
                139.441634,
                35.365622
              ],
              [
                139.434806,
                35.343111
              ],
              [
                139.4325,
                35.3197
              ],
              [
                139.434806,
                35.296289
              ],
              [
                139.441634,
                35.273778
              ],
              [
                139.452724,
                35.253032
              ],
              [
                139.467647,
                35.234847
              ],
              [
                139.485832,
                35.219924
              ],
              [
                139.506578,
                35.208834
              ],
              [
                139.529089,
                35.202006
              ],
              [
                139.5525,
                35.1997
              ],
              [
                139.575911,
                35.202006
              ],
              [
                139.598422,
                35.208834
              ],
              [
                139.619168,
                35.219924
              ],
              [
                139.637353,
                35.234847
              ],
              [
                139.652276,
                35.253032
              ],
              [
                139.663366,
                35.273778
              ],
              [
                139.670194,
                35.296289
              ],
              [
                139.6725,
                35.3197
              ]
            ]
          ],
          [
            [
              [
                139.1447,
                35.1894
              ],
              [
                139.142394,
                35.212811
              ],
              [
                139.135566,
                35.235322
              ],
              [
                139.124476,
                35.256068
              ],
              [
                139.109553,
                35.274253
              ],
              [
                139.091368,
                35.289176
              ],
              [
                139.070622,
                35.300266
              ],
              [
                139.048111,
                35.307094
              ],
              [
                139.0247,
                35.3094
              ],
              [
                139.001289,
                35.307094
              ],
              [
                138.978778,
                35.300266
              ],
              [
                138.958032,
                35.289176
              ],
              [
                138.939847,
                35.274253
              ],
              [
                138.924924,
                35.256068
              ],
              [
                138.913834,
                35.235322
              ],
              [
                138.907006,
                35.212811
              ],
              [
                138.9047,
                35.1894
              ],
              [
                138.907006,
                35.165989
              ],
              [
                138.913834,
                35.143478
              ],
              [
                138.924924,
                35.122732
              ],
              [
                138.939847,
                35.104547
              ],
              [
                138.958032,
                35.089624
              ],
              [
                138.978778,
                35.078534
              ],
              [
                139.001289,
                35.071706
              ],
              [
                139.0247,
                35.0694
              ],
              [
                139.048111,
                35.071706
              ],
              [
                139.070622,
                35.078534
              ],
              [
                139.091368,
                35.089624
              ],
              [
                139.109553,
                35.104547
              ],
              [
                139.124476,
                35.122732
              ],
              [
                139.135566,
                35.143478
              ],
              [
                139.142394,
                35.165989
              ],
              [
                139.1447,
                35.1894
              ]
            ]
          ]
        ]
      }
    }
  ]
}
